{"type": "FeatureCollection", "features": [ {"type": "Feature", "properties": {"norad_id": 38809, "name": "FENGYUN 1C DEB", "group": "fengyun-1c-debris", "lat": 29.072259705931458, "lon": 5.841809981291318, "alt_km": 861.4910204459184, "timestamp": "2025-12-26T22:28:06.074824+00:00", "meta": {"OBJECT_NAME": "FENGYUN 1C DEB", "OBJECT_ID": "1999-025EUZ", "EPOCH": "2025-12-23T19:49:43.140000", "MEAN_MOTION": 14.18201814, "ECCENTRICITY": 0.02225154, "INCLINATION": 98.5892, "RA_OF_ASC_NODE": 7.6495, "ARG_OF_PERICENTER": 295.9236, "MEAN_ANOMALY": 61.9159, "EPHEMERIS_TYPE": 0, "CLASSIFICATION_TYPE": "U", "NORAD_CAT_ID": 38809, "ELEMENT_SET_NO": 999, "REV_AT_EPOCH": 69363, "BSTAR": 0.00046429524, "MEAN_MOTION_DOT": 1.172e-05, "MEAN_MOTION_DDOT": 0}, "tle": {"line1": "1 38809U 99025EUZ 25357.82619375  .00001172  00000+0  46430-3 0  9996", "line2": "2 38809  98.5892   7.6495 0222515 295.9236  61.9159 14.18201814693633"}}, "geometry": {"type": "Point", "coordinates": [5.841809981291318, 29.072259705931458]}}, {"type": "Feature", "properties": {"norad_id": 38813, "name": "FENGYUN 1C DEB", "group": "fengyun-1c-debris", "lat": -51.46474434446503, "lon": 166.95678105109118, "alt_km": 835.901951677527, "timestamp": "2025-12-26T22:28:06.074835+00:00", "meta": {"OBJECT_NAME": "FENGYUN 1C DEB", "OBJECT_ID": "1999-025EVD", "EPOCH": "2025-12-26T06:09:37.585728", "MEAN_MOTION": 14.20193904, "ECCENTRICITY": 0.0006655, "INCLINATION": 99.346, "RA_OF_ASC_NODE": 358.173, "ARG_OF_PERICENTER": 79.7045, "MEAN_ANOMALY": 280.4879, "EPHEMERIS_TYPE": 0, "CLASSIFICATION_TYPE": "U", "NORAD_CAT_ID": 38813, "ELEMENT_SET_NO": 999, "REV_AT_EPOCH": 48442, "BSTAR": 0.00052062, "MEAN_MOTION_DOT": 1.063e-05, "MEAN_MOTION_DDOT": 0}, "tle": {"line1": "1 38813U 99025EVD 25360.25668502  .00001063  00000+0  52062-3 0  9995", "line2": "2 38813  99.3460 358.1730 0006655  79.7045 280.4879 14.20193904484420"}}, "geometry": {"type": "Point", "coordinates": [166.95678105109118, -51.46474434446503]}}, {"type": "Feature", "properties": {"norad_id": 38817, "name": "FENGYUN 1C DEB", "group": "fengyun-1c-debris", "lat": -80.32178578310368, "lon": -67.9213508805222, "alt_km": 1056.4331697564958, "timestamp": "2025-12-26T22:28:06.074845+00:00", "meta": {"OBJECT_NAME": "FENGYUN 1C DEB", "OBJECT_ID": "1999-025EVH", "EPOCH": "2025-12-23T20:35:47.170176", "MEAN_MOTION": 13.57734198, "ECCENTRICITY": 0.0291793, "INCLINATION": 98.6001, "RA_OF_ASC_NODE": 226.8391, "ARG_OF_PERICENTER": 15.5256, "MEAN_ANOMALY": 345.4607, "EPHEMERIS_TYPE": 0, "CLASSIFICATION_TYPE": "U", "NORAD_CAT_ID": 38817, "ELEMENT_SET_NO": 999, "REV_AT_EPOCH": 65985, "BSTAR": 0.0022277, "MEAN_MOTION_DOT": 2.078e-05, "MEAN_MOTION_DDOT": 0}, "tle": {"line1": "1 38817U 99025EVH 25357.85818484  .00002078  00000+0  22277-2 0  9998", "line2": "2 38817  98.6001 226.8391 0291793  15.5256 345.4607 13.57734198659859"}}, "geometry": {"type": "Point", "coordinates": [-67.9213508805222, -80.32178578310368]}}, {"type": "Feature", "properties": {"norad_id": 38818, "name": "FENGYUN 1C DEB", "group": "fengyun-1c-debris", "lat": 51.86239412806824, "lon": 46.067176432774275, "alt_km": 692.3303423943335, "timestamp": "2025-12-26T22:28:06.074856+00:00", "meta": {"OBJECT_NAME": "FENGYUN 1C DEB", "OBJECT_ID": "1999-025EVJ", "EPOCH": "2025-12-19T22:33:15.721056", "MEAN_MOTION": 14.39504218, "ECCENTRICITY": 0.0088399, "INCLINATION": 98.2985, "RA_OF_ASC_NODE": 50.005, "ARG_OF_PERICENTER": 78.086, "MEAN_ANOMALY": 98.6617, "EPHEMERIS_TYPE": 0, "CLASSIFICATION_TYPE": "U", "NORAD_CAT_ID": 38818, "ELEMENT_SET_NO": 999, "REV_AT_EPOCH": 67351, "BSTAR": 0.00027316, "MEAN_MOTION_DOT": 8.48e-06, "MEAN_MOTION_DDOT": 0}, "tle": {"line1": "1 38818U 99025EVJ 25353.93976529  .00000848  00000+0  27316-3 0  9992", "line2": "2 38818  98.2985  50.0050 0088399  78.0860  98.6617 14.39504218673513"}}, "geometry": {"type": "Point", "coordinates": [46.067176432774275, 51.86239412806824]}}, {"type": "Feature", "properties": {"norad_id": 38819, "name": "FENGYUN 1C DEB", "group": "fengyun-1c-debris", "lat": 65.05088009727123, "lon": -25.660055573890713, "alt_km": 817.4391989688211, "timestamp": "2025-12-26T22:28:06.074867+00:00", "meta": {"OBJECT_NAME": "FENGYUN 1C DEB", "OBJECT_ID": "1999-025EVK", "EPOCH": "2025-12-21T05:24:44.153856", "MEAN_MOTION": 14.19385553, "ECCENTRICITY": 0.0080075, "INCLINATION": 98.6179, "RA_OF_ASC_NODE": 347.8087, "ARG_OF_PERICENTER": 169.9002, "MEAN_ANOMALY": 253.6403, "EPHEMERIS_TYPE": 0, "CLASSIFICATION_TYPE": "U", "NORAD_CAT_ID": 38819, "ELEMENT_SET_NO": 999, "REV_AT_EPOCH": 63598, "BSTAR": 0.00031541, "MEAN_MOTION_DOT": 6.42e-06, "MEAN_MOTION_DDOT": 0}, "tle": {"line1": "1 38819U 99025EVK 25355.22551104  .00000642  00000+0  31541-3 0  9992", "line2": "2 38819  98.6179 347.8087 0080075 169.9002 253.6403 14.19385553635983"}}, "geometry": {"type": "Point", "coordinates": [-25.660055573890713, 65.05088009727123]}}, {"type": "Feature", "properties": {"norad_id": 38827, "name": "FENGYUN 1C DEB", "group": "fengyun-1c-debris", "lat": -22.385468070560165, "lon": 26.904131464930853, "alt_km": 723.865928631637, "timestamp": "2025-12-26T22:28:06.074877+00:00", "meta": {"OBJECT_NAME": "FENGYUN 1C DEB", "OBJECT_ID": "1999-025EVT", "EPOCH": "2025-12-22T07:57:58.637952", "MEAN_MOTION": 14.32909061, "ECCENTRICITY": 0.02157809, "INCLINATION": 98.3849, "RA_OF_ASC_NODE": 18.9611, "ARG_OF_PERICENTER": 284.2489, "MEAN_ANOMALY": 73.4818, "EPHEMERIS_TYPE": 0, "CLASSIFICATION_TYPE": "U", "NORAD_CAT_ID": 38827, "ELEMENT_SET_NO": 999, "REV_AT_EPOCH": 61197, "BSTAR": 0.00094975527, "MEAN_MOTION_DOT": 3.312e-05, "MEAN_MOTION_DDOT": 0}, "tle": {"line1": "1 38827U 99025EVT 25356.33192868  .00003312  00000+0  94976-3 0  9990", "line2": "2 38827  98.3849  18.9611 0215780 284.2489  73.4818 14.32909061611977"}}, "geometry": {"type": "Point", "coordinates": [26.904131464930853, -22.385468070560165]}}, {"type": "Feature", "properties": {"norad_id": 38829, "name": "FENGYUN 1C DEB", "group": "fengyun-1c-debris", "lat": 31.51917154129414, "lon": -158.0820538585776, "alt_km": 887.3212181567178, "timestamp": "2025-12-26T22:28:06.074887+00:00", "meta": {"OBJECT_NAME": "FENGYUN 1C DEB", "OBJECT_ID": "1999-025EVV", "EPOCH": "2025-12-24T06:43:17.691168", "MEAN_MOTION": 14.09239954, "ECCENTRICITY": 0.00407032, "INCLINATION": 98.7492, "RA_OF_ASC_NODE": 13.9194, "ARG_OF_PERICENTER": 358.0019, "MEAN_ANOMALY": 2.0983, "EPHEMERIS_TYPE": 0, "CLASSIFICATION_TYPE": "U", "NORAD_CAT_ID": 38829, "ELEMENT_SET_NO": 999, "REV_AT_EPOCH": 64295, "BSTAR": 0.00056817994, "MEAN_MOTION_DOT": 9.53e-06, "MEAN_MOTION_DDOT": 0}, "tle": {"line1": "1 38829U 99025EVV 25358.28006587  .00000953  00000+0  56818-3 0  9991", "line2": "2 38829  98.7492  13.9194 0040703 358.0019   2.0983 14.09239954642952"}}, "geometry": {"type": "Point", "coordinates": [-158.0820538585776, 31.51917154129414]}}, {"type": "Feature", "properties": {"norad_id": 38832, "name": "FENGYUN 1C DEB", "group": "fengyun-1c-debris", "lat": -14.780603044025103, "lon": 48.05980691529741, "alt_km": 824.97618391381, "timestamp": "2025-12-26T22:28:06.074898+00:00", "meta": {"OBJECT_NAME": "FENGYUN 1C DEB", "OBJECT_ID": "1999-025EVY", "EPOCH": "2025-12-24T02:09:06.186816", "MEAN_MOTION": 14.04532991, "ECCENTRICITY": 0.00836335, "INCLINATION": 99.2651, "RA_OF_ASC_NODE": 42.6878, "ARG_OF_PERICENTER": 11.1486, "MEAN_ANOMALY": 349.1508, "EPHEMERIS_TYPE": 0, "CLASSIFICATION_TYPE": "U", "NORAD_CAT_ID": 38832, "ELEMENT_SET_NO": 999, "REV_AT_EPOCH": 63917, "BSTAR": 0.00096745057, "MEAN_MOTION_DOT": 1.547e-05, "MEAN_MOTION_DDOT": 0}, "tle": {"line1": "1 38832U 99025EVY 25358.08965494  .00001547  00000+0  96745-3 0  9997", "line2": "2 38832  99.2651  42.6878 0083633  11.1486 349.1508 14.04532991639171"}}, "geometry": {"type": "Point", "coordinates": [48.05980691529741, -14.780603044025103]}}, {"type": "Feature", "properties": {"norad_id": 39537, "name": "FENGYUN 1C DEB", "group": "fengyun-1c-debris", "lat": -50.25078947433303, "lon": -44.85127678187559, "alt_km": 913.1776185864846, "timestamp": "2025-12-26T22:28:06.074908+00:00", "meta": {"OBJECT_NAME": "FENGYUN 1C DEB", "OBJECT_ID": "1999-025EWE", "EPOCH": "2025-12-19T15:51:43.070688", "MEAN_MOTION": 13.84193589, "ECCENTRICITY": 0.0177797, "INCLINATION": 99.1526, "RA_OF_ASC_NODE": 139.2359, "ARG_OF_PERICENTER": 322.4144, "MEAN_ANOMALY": 36.4691, "EPHEMERIS_TYPE": 0, "CLASSIFICATION_TYPE": "U", "NORAD_CAT_ID": 39537, "ELEMENT_SET_NO": 999, "REV_AT_EPOCH": 59352, "BSTAR": 0.0010435, "MEAN_MOTION_DOT": 1.271e-05, "MEAN_MOTION_DDOT": 0}, "tle": {"line1": "1 39537U 99025EWE 25353.66091517  .00001271  00000+0  10435-2 0  9990", "line2": "2 39537  99.1526 139.2359 0177797 322.4144  36.4691 13.84193589593525"}}, "geometry": {"type": "Point", "coordinates": [-44.85127678187559, -50.25078947433303]}}, {"type": "Feature", "properties": {"norad_id": 39541, "name": "FENGYUN 1C DEB", "group": "fengyun-1c-debris", "lat": 2.6976703359502405, "lon": 42.37212990658383, "alt_km": 781.4392747507318, "timestamp": "2025-12-26T22:28:06.074920+00:00", "meta": {"OBJECT_NAME": "FENGYUN 1C DEB", "OBJECT_ID": "1999-025EWJ", "EPOCH": "2025-12-14T09:31:50.250432", "MEAN_MOTION": 14.20397112, "ECCENTRICITY": 0.00718166, "INCLINATION": 98.681, "RA_OF_ASC_NODE": 30.4764, "ARG_OF_PERICENTER": 68.7411, "MEAN_ANOMALY": 292.1416, "EPHEMERIS_TYPE": 0, "CLASSIFICATION_TYPE": "U", "NORAD_CAT_ID": 39541, "ELEMENT_SET_NO": 999, "REV_AT_EPOCH": 59026, "BSTAR": 0.00071004371, "MEAN_MOTION_DOT": 1.519e-05, "MEAN_MOTION_DDOT": 0}, "tle": {"line1": "1 39541U 99025EWJ 25348.39710938  .00001519  00000+0  71004-3 0  9999", "line2": "2 39541  98.6810  30.4764 0071816  68.7411 292.1416 14.20397112590267"}}, "geometry": {"type": "Point", "coordinates": [42.37212990658383, 2.6976703359502405]}}]}